DONGPO 08               
1 54686U 22167E   23344.59616989  .00006455  00000+0  34773-3 0  9992
2 54686  97.5846 120.9788 0010526 114.8797 245.3530 15.15110166 55353
2022-167F               
1 54687U 22167F   23344.56273499  .00010373  00000+0  49417-3 0  9990
2 54687  97.5748 121.4175 0013315  96.2106 264.0645 15.19240963 55399
DONGPO 10               
1 54689U 22167H   23344.57372614  .00005152  00000+0  27891-3 0  9993
2 54689  97.5919 121.3427 0013036  88.1265 272.1460 15.15008026 55355
2022-167M               
1 54693U 22167M   23344.58605794  .00017316  00000+0  68937-3 0  9998
2 54693  97.5810 123.1295 0011038  81.7334 278.5154 15.25261563 55469
JILIN-1 GAOFEN 03D48    
1 54695U 22167P   23344.58610921  .00005811  00000+0  31489-3 0  9997
2 54695  97.5858 121.1918 0013786  98.6303 261.6492 15.14912586 55361
STAR VIBE               
1 55009U 23001A   23344.56266962  .00004270  00000+0  22330-3 0  9998
2 55009  97.4550  40.5624 0010642 128.9293 231.2890 15.16347652 51741
BRO-8                   
1 55011U 23001C   23344.55757834  .00003411  00000+0  17925-3 0  9993
2 55011  97.4611  40.8208 0011617 131.5349 228.6882 15.16300670 51748
CONNECTA T1.2           
1 55012U 23001D   23343.63348756  .00003895  00000+0  19765-3 0  9991
2 55012  97.4624  40.2899 0012374 130.8588 229.3720 15.17443571 51626
BIRKELAND               
1 55015U 23001G   23344.58058824  .00003290  00000+0  16174-3 0  9993
2 55015  97.4614  41.5625 0011602 122.6034 237.6322 15.18677968 51795
ION SCV-008             
1 55051U 23001AU  23344.48293105  .00003241  00000+0  17821-3 0  9991
2 55051  97.6258  58.7601 0017762  83.1848 277.1404 15.14680585 51630
ION SCV-007             
1 55060U 23001BD  23343.63012794  .00000468  00000+0  76873-4 0  9991
2 55060  98.0271  43.2640 0014084  58.2102 302.0476 14.75168521 50400
NSL-2                   
1 55067U 23001BL  23343.16330346  .00030746  00000+0  97927-3 0  9996
2 55067  97.4589  43.4110 0012254 110.2463 250.0097 15.32433270 51796
TAUSAT-2                
1 55073U 23001BS  23344.39211986  .00009123  00000+0  38416-3 0  9990
2 55073  97.4567  42.6948 0015613  94.8816 265.4204 15.23473170 51861
FLOCK 4Y-23             
1 55080U 23001BZ  23344.61553285  .00007727  00000+0  33191-3 0  9997
2 55080  97.4556  42.7762 0015254 110.9683 249.3188 15.22855963 51893
HUYGENS                 
1 55093U 23001CN  23344.59561822  .00008001  00000+0  38418-3 0  9997
2 55093  97.4568  41.6293 0016674 107.2627 253.0433 15.18996708 51816
BDSAT-2                 
1 55098U 23001CT  23343.12434263  .00011789  00000+0  48924-3 0  9998
2 55098  97.4602  41.6392 0015130 110.4393 249.8471 15.23903050 51675
SHARJAHSAT-1            
1 55104U 23001CZ  23344.57985659  .00005132  00000+0  26300-3 0  9995
2 55104  97.4569  40.7792 0012276 130.8487 229.3812 15.16953047 51751
2023-003A               
1 55133U 23003A   23344.59610855  .00006492  00000+0  30768-3 0  9997
2 55133  97.2491  60.4755 0005369 150.4436 209.7104 15.19619463 50838
2023-007N               
1 55260U 23007N   23344.59437505  .00027171  00000+0  55579-3 0  9995
2 55260  97.3361  58.1343 0005742 199.8342 160.2685 15.46082938 50534
2023-007P               
1 55261U 23007P   23344.59877253  .00015936  00000+0  40072-3 0  9992
2 55261  97.3369  56.9004 0007238 207.5367 152.5496 15.40010143 50457
ION SCV-009             
1 55441U 23014BC  23344.43129451  .00088565  00000+0  42818-3 0  9991
2 55441  69.9992 296.6406 0006671 250.7521 109.2960 15.82118604 49264
EOS-7                   
1 55562U 23019A   23344.45499612  .00025807  00000+0  52023-3 0  9990
2 55562  37.1844 358.9710 0002890 304.1189 206.1173 15.45720246 46893
HORUS 1                 
1 55690U 23025A   23344.56195031  .00005767  00000+0  24610-3 0  9993
2 55690  97.4468  56.6959 0002347 343.9034  16.2128 15.23294260 44043
HORUS 2                 
1 55844U 23032A   23344.52921999  .00005427  00000+0  22966-3 0  9993
2 55844  97.4515  56.7523 0004298  75.5587 284.6127 15.23600811 41470
GLOBAL-19               
1 55982U 23041B   23343.89745627  .00002604  00000+0  72541-4 0  9996
2 55982  42.0130 171.0802 0015861 250.9812 108.9309 15.39051118 40174
DEWASAT-2               
1 56180U 23054C   23344.60105486  .00014374  00000+0  49764-3 0  9991
2 56180  97.3887 237.6039 0009721 122.6837 237.5342 15.29925470 37068
KILICSAT                
1 56181U 23054D   23344.59854765  .00011202  00000+0  40465-3 0  9997
2 56181  97.3840 237.3268 0009613 122.3143 237.9029 15.28597273 37067
SSS-2B                  
1 56184U 23054G   23344.56259468  .00011060  00000+0  39279-3 0  9999
2 56184  97.3905 237.5740 0010716 123.1394 237.0875 15.29147166 37065
BRO-9                   
1 56185U 23054H   23344.57297120  .00007882  00000+0  31162-3 0  9998
2 56185  97.3816 236.7991 0009981 119.5074 240.7161 15.25705616 37034
CIRBE                   
1 56188U 23054L   23343.67877917  .00020849  00000+0  67492-3 0  9992
2 56188  97.3850 236.9260 0009903 114.2860 245.9417 15.32015411 36951
ION SCV-010             
1 56192U 23054Q   23344.62642606  .00001943  00000+0  14394-3 0  9995
2 56192  97.4910 234.0851 0014394  50.4009 309.8485 15.04195770 36686
GHOST-1                 
1 56195U 23054T   23343.26337910  .00005692  00000+0  22421-3 0  9991
2 56195  97.3837 235.7258 0011737 114.1877 246.0590 15.25937268 36840
GHOST-2                 
1 56197U 23054V   23344.62282424  .00006538  00000+0  24927-3 0  9996
2 56197  97.3827 237.2492 0012314 109.1208 251.1365 15.26957677 37061
TOMORROW-R1             
1 56199U 23054X   23344.12881633  .00009080  00000+0  33044-3 0  9995
2 56199  97.3851 237.0589 0011916 112.4883 247.7619 15.28391188 37006
FACSAT-2                
1 56205U 23054AD  23344.60426346  .00011833  00000+0  42407-3 0  9994
2 56205  97.3877 237.8602 0015426 102.9896 257.3068 15.28773542 37096
CONNECTA T2.1           
1 56210U 23054AJ  23344.57192123  .00009116  00000+0  33742-3 0  9992
2 56210  97.3803 237.3597 0014207 100.0072 260.2771 15.27801795 37073
INSPIRE-SAT 7           
1 56211U 23054AK  23343.20649972  .00017490  00000+0  53548-3 0  9991
2 56211  97.3866 237.1718 0013887 105.7208 254.5568 15.33787110 36926
ROSEYCUBESAT-1          
1 56212U 23054AL  23344.57647456  .00019690  00000+0  58395-3 0  9997
2 56212  97.3884 238.7123 0014272  99.5486 260.7370 15.34763914 37143
LS3C                    
1 56214U 23054AN  23343.70191993  .00016830  00000+0  52909-3 0  9991
2 56214  97.3832 237.4292 0014380  99.8771 260.4095 15.32946195 36996
IRIS-C                  
1 56221U 23054AV  23343.64766710  .00016846  00000+0  56370-3 0  9990
2 56221  97.3828 236.7454 0013142 105.4504 254.8190 15.30956487 36934
DISCO-1                 
1 56222U 23054AW  23344.60672936  .00010866  00000+0  38811-3 0  9990
2 56222  97.3818 237.4085 0013532 108.8693 251.4015 15.28932268 37063
VIREO                   
1 56223U 23054AX  23344.62267210  .00012805  00000+0  37982-3 0  9991
2 56223  97.3801 238.1041 0011695  96.5158 263.7417 15.34889978 37128
REVELA                  
1 56224U 23054AY  23343.20498279  .00012237  00000+0  41918-3 0  9999
2 56224  97.3834 236.4196 0009372 105.0536 255.1743 15.30312588 36874
ISTANBUL                
1 56230U 23084BP  23344.22721059  .00047725  00000+0  15701-2 0  9997
2 56230  97.5180  99.8924 0011591 316.8072  43.2259 15.31299632 27389
TELEOS-2                
1 56310U 23057C   23344.50181004  .00005876  00000+0  44569-3 0  9993
2 56310   9.9884  60.6007 0000342 299.3865  60.6314 14.96365514 34815
SNIPE 4                 
1 56744U 23072B   23344.57062176  .00004094  00000+0  25446-3 0  9990
2 56744  97.5450 168.5300 0007811 347.1535  12.9494 15.10184899 30026
SNIPE 2                 
1 56745U 23072C   23344.55001071  .00004738  00000+0  29229-3 0  9994
2 56745  97.5460 168.5856 0008000 353.5760   6.5365 15.10378759 30022
2023-072G               
1 56749U 23072G   23344.54681109  .00004940  00000+0  29930-3 0  9997
2 56749  97.5270 168.2387 0009727 356.5266   3.5895 15.10998805 30038
OTTER PUP               
1 56933U 23084B   23344.25975248  .00006640  00000+0  33073-3 0  9995
2 56933  97.5239  98.6119 0006831 298.9456  61.1092 15.17889786 27309
GEISAT PRECURSOR        
1 56934U 23084C   23344.51662455  .00005061  00000+0  27359-3 0  9994
2 56934  97.5284  98.7051 0008441 336.4305  23.6539 15.15109965 27329
EIVE                    
1 56937U 23084F   23344.53059069  .00009413  00000+0  47477-3 0  9998
2 56937  97.5246  98.9163 0007588 329.7704  30.3091 15.17329733 27344
LAYAN-23                
1 56939U 23084H   23344.53461179  .00010466  00000+0  51443-3 0  9997
2 56939  97.5246  99.0809 0007922 322.1253  37.9422 15.18198423 27356
AFRL-XVI                
1 56942U 23084L   23343.28311177  .00009691  00000+0  48142-3 0  9994
2 56942  97.5284  97.9104 0009102 328.0857  31.9824 15.17843288 27168
BLACKJACK ACES-3        
1 56950U 23084U   23344.26219403  .00005582  00000+0  29194-3 0  9992
2 56950  97.5278  98.7158 0010356 313.1667  46.8699 15.16221995 27300
QPS-SAR-6 AMATERU-III   
1 56951U 23084V   23344.53240900  .00013410  00000+0  62080-3 0  9999
2 56951  97.5257  99.4065 0009579 308.5700  51.4676 15.20202666 27377
BLACKJACK ACES-4        
1 56952U 23084W   23343.75906453  .00006738  00000+0  34387-3 0  9999
2 56952  97.5270  98.2981 0011043 315.2664  44.7677 15.17002228 27239
BLACKJACK ACES-2        
1 56955U 23084Z   23344.26018107  .00006640  00000+0  34654-3 0  9998
2 56955  97.5276  98.7026 0011346 316.0665  43.9665 15.16214743 27301
BLACKJACK ACES-1        
1 56956U 23084AA  23343.29711183  .00006729  00000+0  34345-3 0  9990
2 56956  97.5261  97.8526 0011495 322.8270  37.2166 15.16991977 27160
ION SCV-011             
1 56957U 23084AB  23343.33225715  .00000822  00000+0  12898-3 0  9994
2 56957  98.0413  98.9902 0071589 194.6208 165.2930 14.73719766 26630
